{
"type": "FeatureCollection",
"name": "barrios_villamaria",
"crs": { "type": "name", "properties": { "name": "urn:ogc:def:crs:OGC:1.3:CRS84" } },
"features": [
{ "type": "Feature", "properties": { "NOMBRE": "VISTA VERDE" }, "geometry": { "type": "Polygon", "coordinates": [ [ [ -63.279532896146399, -32.414401157884996 ], [ -63.279594482086502, -32.414351293086582 ], [ -63.280276212049635, -32.413974961171064 ], [ -63.283512993833902, -32.41368149720612 ], [ -63.284253417020757, -32.414095533776297 ], [ -63.284753104832426, -32.414598705677108 ], [ -63.285172717581688, -32.415183833500897 ], [ -63.285175928665559, -32.4162046904977 ], [ -63.285121241028413, -32.416356510636575 ], [ -63.285074565353369, -32.416510243111269 ], [ -63.285035993996843, -32.41666558386887 ], [ -63.285005603287701, -32.416822225674032 ], [ -63.284983453376036, -32.416979858716637 ], [ -63.284969588113825, -32.41713817122443 ], [ -63.284964034967864, -32.417296850079673 ], [ -63.284966804965158, -32.417455581438468 ], [ -63.284977892670675, -32.417614051351407 ], [ -63.284997276197835, -32.417771946384605 ], [ -63.285024917251384, -32.417928954239535 ], [ -63.285060761202864, -32.418084764370931 ], [ -63.285104737198274, -32.418239068600798 ], [ -63.285156758297951, -32.418391561728278 ], [ -63.285216721648148, -32.418541942133139 ], [ -63.2852845086842, -32.418689912372514 ], [ -63.285359985364813, -32.418835179769275 ], [ -63.285443002436843, -32.418977456991044 ], [ -63.285533395730305, -32.419116462618533 ], [ -63.285630986482865, -32.419251921702291 ], [ -63.285735581693245, -32.419383566306678 ], [ -63.285846974502739, -32.419511136039951 ], [ -63.285964944604288, -32.419634378569278 ], [ -63.286089258678089, -32.41975305012015 ], [ -63.286219670853008, -32.419866915958501 ], [ -63.286355923192822, -32.419975750855258 ], [ -63.286497746206393, -32.42007933953186 ], [ -63.287326268877472, -32.42038412023966 ], [ -63.287816027800154, -32.420273966168928 ], [ -63.288317208091115, -32.419631772993348 ], [ -63.288370729528864, -32.419451077840797 ], [ -63.288431909234113, -32.419272139966615 ], [ -63.28850066734946, -32.419095192805052 ], [ -63.288576914132562, -32.418920467192052 ], [ -63.288660550073409, -32.418748191064083 ], [ -63.288751466024429, -32.418578589160916 ], [ -63.288849543342948, -32.418411882732471 ], [ -63.288954654046208, -32.418248289250187 ], [ -63.289066660978492, -32.418088022123506 ], [ -63.289185417990176, -32.417931290421485 ], [ -63.289310770128523, -32.417778298600091 ], [ -63.28944255383994, -32.417629246235649 ], [ -63.289580597183502, -32.417484327764505 ], [ -63.28972472005524, -32.417343732229504 ], [ -63.289874734423236, -32.417207643033429 ], [ -63.29003044457297, -32.41707623769986 ], [ -63.290191647362619, -32.416949687641676 ], [ -63.291073593607976, -32.416382021641034 ], [ -63.291235752646692, -32.41634515834177 ], [ -63.29139983345047, -32.416315028663462 ], [ -63.291565447649404, -32.416291703920891 ], [ -63.291732203245253, -32.416275239321962 ], [ -63.291899705538967, -32.416265673837003 ], [ -63.292067558064616, -32.416263030106649 ], [ -63.29223536352761, -32.416267314388186 ], [ -63.292402724744704, -32.416278516540807 ], [ -63.292569245583884, -32.416296610049585 ], [ -63.292734531901729, -32.416321552088206 ], [ -63.292898192476002, -32.416353283620303 ], [ -63.293059839931402, -32.416391729539185 ], [ -63.293219091656269, -32.416436798845595 ], [ -63.293375570707902, -32.416488384862895 ], [ -63.293528906704601, -32.416546365489694 ], [ -63.29367873670212, -32.416610603488593 ], [ -63.293824706052554, -32.416680946811105 ], [ -63.293966469243699, -32.416757228957316 ], [ -63.294103690716639, -32.416839269369994 ], [ -63.294236045660007, -32.416926873861762 ], [ -63.294824334278168, -32.417654498195702 ], [ -63.29519287976504, -32.418416471972307 ], [ -63.295282141979229, -32.419458933635362 ], [ -63.295548565387712, -32.420776980359705 ], [ -63.295603490273827, -32.420878679908796 ], [ -63.295665520420819, -32.4209773965135 ], [ -63.295734431698527, -32.421072773450476 ], [ -63.295809975108753, -32.421164466063608 ], [ -63.295891877684824, -32.421252143009482 ], [ -63.295979843477753, -32.421335487454961 ], [ -63.296073554625657, -32.421414198222202 ], [ -63.29617267250223, -32.421487990877111 ], [ -63.296276838940408, -32.421556598757341 ], [ -63.296385677526693, -32.421619773936065 ], [ -63.296498794961373, -32.421677288118055 ], [ -63.296615782479918, -32.421728933464713 ], [ -63.296736217330228, -32.421774523345363 ], [ -63.296859664300513, -32.421813893011624 ], [ -63.296985677292206, -32.421846900193088 ], [ -63.29711380093228, -32.421873425611317 ], [ -63.29724357221906, -32.421893373411017 ], [ -63.297374522195696, -32.421906671506612 ], [ -63.297506177645118, -32.421913271842591 ], [ -63.297638062800416, -32.421913150567342 ], [ -63.297769701064468, -32.421906308119297 ], [ -63.297900616732555, -32.421892769225366 ], [ -63.29803033671169, -32.421872582811488 ], [ -63.298152656231053, -32.42183790766294 ], [ -63.298272539341397, -32.421797573048629 ], [ -63.29838962236829, -32.42175170132785 ], [ -63.298503550133191, -32.421700431657079 ], [ -63.298613977031074, -32.421643919567757 ], [ -63.298720568078934, -32.421582336494353 ], [ -63.298822999932071, -32.421515869254264 ], [ -63.298920961865129, -32.421444719480959 ], [ -63.299014156714584, -32.421369103012225 ], [ -63.299102301780358, -32.421289249235329 ], [ -63.299185129683281, -32.421205400391031 ], [ -63.300609359051094, -32.420021339157977 ], [ -63.301871179071313, -32.418934762462747 ], [ -63.294054829083251, -32.413469347245908 ], [ -63.293785105636509, -32.413430931823065 ], [ -63.293614231783046, -32.413350749027607 ], [ -63.293439898555313, -32.413276116807879 ], [ -63.293262356414452, -32.413207142383463 ], [ -63.293081860429808, -32.413143924845492 ], [ -63.292898669912717, -32.413086555014395 ], [ -63.292713048043915, -32.413035115309448 ], [ -63.292525261495719, -32.412989679630442 ], [ -63.292335580048956, -32.412950313251507 ], [ -63.29214427620564, -32.412917072727431 ], [ -63.291951624797527, -32.412890005812386 ], [ -63.283773782242399, -32.411391246924069 ], [ -63.27982921477458, -32.411074144202679 ], [ -63.279532896146399, -32.414401157884996 ] ] ] } },
{ "type": "Feature", "properties": { "NOMBRE": "MARIANO MORENO" }, "geometry": { "type": "Polygon", "coordinates": [ [ [ -63.267814024030351, -32.416300460196872 ], [ -63.267930801688337, -32.416125071466347 ], [ -63.268024988024614, -32.416045863213789 ], [ -63.268124218697253, -32.415971217717257 ], [ -63.268228186934401, -32.415901365734321 ], [ -63.268336571320916, -32.415836523203595 ], [ -63.268449036791864, -32.415776890577078 ], [ -63.268565235668312, -32.415722652200671 ], [ -63.268684808732104, -32.41567397574434 ], [ -63.268807386336114, -32.415631011683971 ], [ -63.268932589546885, -32.415593892836206 ], [ -63.269060031315838, -32.415562733947944 ], [ -63.26918931767559, -32.415537631341707 ], [ -63.269320048957645, -32.415518662617941 ], [ -63.269451821027673, -32.415505886415104 ], [ -63.269752198107561, -32.415471276490671 ], [ -63.269903035868303, -32.415449567904147 ], [ -63.270054988277131, -32.415434454376523 ], [ -63.270207654847212, -32.415425975740931 ], [ -63.270360633209975, -32.415424154343526 ], [ -63.270513520175307, -32.415428994984623 ], [ -63.27066591279398, -32.415440484906028 ], [ -63.270817409419323, -32.415458593824617 ], [ -63.270967610765609, -32.415483274012274 ], [ -63.271116120960116, -32.415514460421463 ], [ -63.271262548586243, -32.415552070856776 ], [ -63.271406507714978, -32.415596006191464 ], [ -63.271547618921737, -32.415646150628611 ], [ -63.27168551028624, -32.415702372006301 ], [ -63.271819818372585, -32.415764522145878 ], [ -63.271950189186931, -32.415832437242351 ], [ -63.272076279110429, -32.415905938296078 ], [ -63.272197755804719, -32.41598483158441 ], [ -63.272314299087824, -32.416068909172239 ], [ -63.272425601777975, -32.416157949459858 ], [ -63.272531370503287, -32.416251717766933 ], [ -63.272631326474887, -32.416349966950946 ], [ -63.272725206221921, -32.416452438058485 ], [ -63.27281276228593, -32.416558861007609 ], [ -63.273815370702835, -32.417529860116616 ], [ -63.273917535174391, -32.417615364533688 ], [ -63.274024853209092, -32.417696199490003 ], [ -63.274137028565747, -32.417772141838611 ], [ -63.274253751592049, -32.417842981938257 ], [ -63.274374700079299, -32.417908524232161 ], [ -63.274499540152085, -32.417968587787904 ], [ -63.274627927189982, -32.418023006797114 ], [ -63.274759506778942, -32.418071631033193 ], [ -63.274893915689894, -32.418114326266078 ], [ -63.275030782881572, -32.418150974632965 ], [ -63.275169730525057, -32.41818147496366 ], [ -63.27531037504685, -32.41820574306 ], [ -63.275452328188145, -32.418223711928256 ], [ -63.275595198076743, -32.418235331964155 ], [ -63.275738590309139, -32.418240571089889 ], [ -63.276126667370974, -32.41822313252316 ], [ -63.276200167474393, -32.418210134382264 ], [ -63.276271629874948, -32.418190603052054 ], [ -63.276340249851181, -32.418164758470731 ], [ -63.276405254691355, -32.418132891668499 ], [ -63.276465912395146, -32.418095361490032 ], [ -63.276521539916729, -32.418052590553572 ], [ -63.276571510856506, -32.418005060491517 ], [ -63.27661526251481, -32.41795330652679 ], [ -63.276652302228136, -32.417897911445543 ], [ -63.276682212916555, -32.417839499034372 ], [ -63.276704657779902, -32.417778727055861 ], [ -63.277552558390084, -32.416557003829986 ], [ -63.277720188669157, -32.416202262439455 ], [ -63.278640807054948, -32.415123483979677 ], [ -63.279532896146385, -32.414401157884996 ], [ -63.27982921477458, -32.411074144202679 ], [ -63.261981363974961, -32.409936011408334 ], [ -63.261843361340709, -32.411442999944143 ], [ -63.261226562793617, -32.412119444301027 ], [ -63.267802221775796, -32.416293642581991 ], [ -63.267814024030351, -32.416300460196872 ] ] ] } },
{ "type": "Feature", "properties": { "NOMBRE": "LAS ACACIAS" }, "geometry": { "type": "Polygon", "coordinates": [ [ [ -63.267063026502186, -32.401713665654057 ], [ -63.264472968949811, -32.404349053221665 ], [ -63.26392828586593, -32.404888569844651 ], [ -63.262661516080058, -32.405743073831729 ], [ -63.260961440657844, -32.40677837551651 ], [ -63.260924607498765, -32.407936978975464 ], [ -63.26093531693445, -32.408517925424661 ], [ -63.260984009160566, -32.409874272592866 ], [ -63.261981363974975, -32.409936011408334 ], [ -63.27982921477458, -32.411074144202679 ], [ -63.283773782242399, -32.411391246924069 ], [ -63.291951624797527, -32.412890005812386 ], [ -63.29214427620564, -32.412917072727431 ], [ -63.292335580048956, -32.412950313251507 ], [ -63.292525261495719, -32.412989679630442 ], [ -63.292713048043915, -32.413035115309448 ], [ -63.292898669912717, -32.413086555014395 ], [ -63.293081860429808, -32.413143924845492 ], [ -63.293262356414452, -32.413207142383463 ], [ -63.293439898555313, -32.413276116807879 ], [ -63.293614231783046, -32.413350749027607 ], [ -63.293785105636509, -32.413430931823065 ], [ -63.294054829083251, -32.413469347245908 ], [ -63.283458010837442, -32.406057909502216 ], [ -63.28308750026207, -32.405825161287481 ], [ -63.282712088406058, -32.405598136692568 ], [ -63.282331898126841, -32.405376909992974 ], [ -63.281947053842401, -32.405161553566671 ], [ -63.281557681490675, -32.404952137870687 ], [ -63.281163908488338, -32.404748731417982 ], [ -63.280765863689133, -32.404551400755075 ], [ -63.280363677341796, -32.404360210440331 ], [ -63.279957481047489, -32.404175223022939 ], [ -63.279547407716755, -32.403996499022369 ], [ -63.27913359152614, -32.403824096908686 ], [ -63.278716167874286, -32.403658073083434 ], [ -63.278295273337783, -32.403498481861241 ], [ -63.277871045626455, -32.403345375452055 ], [ -63.277443623538431, -32.403198803944093 ], [ -63.27701314691484, -32.403058815287494 ], [ -63.276579756594018, -32.402925455278741 ], [ -63.276143594365642, -32.402798767545541 ], [ -63.275704802924366, -32.402678793532722 ], [ -63.275263525823156, -32.402565572488662 ], [ -63.27481990742654, -32.402459141452425 ], [ -63.274374092863383, -32.402359535241779 ], [ -63.273926227979523, -32.402266786441672 ], [ -63.273476459290123, -32.402180925393772 ], [ -63.273024933931872, -32.402101980186394 ], [ -63.272571799614965, -32.402029976645451 ], [ -63.272117204574798, -32.40196493832596 ], [ -63.271661297523636, -32.401906886504356 ], [ -63.27120422760207, -32.401855840171585 ], [ -63.270746144330282, -32.401811816026857 ], [ -63.270287197559263, -32.40177482847222 ], [ -63.269827537421946, -32.401744889607855 ], [ -63.269367314284089, -32.401722009228109 ], [ -63.268906678695288, -32.401706194818331 ], [ -63.268445781339786, -32.401697451552373 ], [ -63.267984772987276, -32.401695782290965 ], [ -63.267523804443748, -32.401701187580734 ], [ -63.267063026502186, -32.401713665654057 ] ] ] } },
{ "type": "Feature", "properties": { "NOMBRE": "ROQUE SAENZ PEÑA" }, "geometry": { "type": "Polygon", "coordinates": [ [ [ -63.260984009160566, -32.409874272592866 ], [ -63.26093531693445, -32.408517925424661 ], [ -63.260924607498765, -32.407936978975464 ], [ -63.260961440657844, -32.40677837551651 ], [ -63.262661516080058, -32.405743073831729 ], [ -63.26392828586593, -32.404888569844651 ], [ -63.264472968949811, -32.404349053221665 ], [ -63.267063026502186, -32.401713665654057 ], [ -63.266655584909145, -32.401730601741065 ], [ -63.266248514926545, -32.401753068086677 ], [ -63.265841920816676, -32.401781058937019 ], [ -63.265435906720235, -32.401814567123154 ], [ -63.263702561258583, -32.401991879101438 ], [ -63.263582049635509, -32.401985315711833 ], [ -63.263137725223359, -32.402045761687262 ], [ -63.262694722624694, -32.40211282935536 ], [ -63.262253178910605, -32.402186497965268 ], [ -63.26181323070179, -32.402266744723619 ], [ -63.26137501412633, -32.402353544801642 ], [ -63.260938664777697, -32.402446871342832 ], [ -63.260504317672826, -32.40254669547123 ], [ -63.260072107210455, -32.402652986300282 ], [ -63.259642167129606, -32.402765710942518 ], [ -63.259214630468279, -32.402884834519512 ], [ -63.258789629522369, -32.403010320172832 ], [ -63.258367295804817, -32.403142129075292 ], [ -63.257947760004946, -32.403280220443065 ], [ -63.257531151948101, -32.403424551548135 ], [ -63.257117600555617, -32.40357507773156 ], [ -63.256707233804832, -32.403731752417336 ], [ -63.256300178689727, -32.403894527126667 ], [ -63.255896561181572, -32.404063351492944 ], [ -63.255496506189999, -32.404238173277399 ], [ -63.255100137524487, -32.404418938385128 ], [ -63.254707577855996, -32.404605590881864 ], [ -63.254318948679142, -32.404798073011207 ], [ -63.253934370274571, -32.404996325212551 ], [ -63.253553961671841, -32.405200286139333 ], [ -63.253177840612551, -32.405409892678108 ], [ -63.252806123513999, -32.405625079968011 ], [ -63.252438925433175, -32.405845781420744 ], [ -63.252076360031168, -32.406071928741227 ], [ -63.256737701492249, -32.409073362318608 ], [ -63.25789761894795, -32.409570270371702 ], [ -63.258159054266926, -32.409660296704502 ], [ -63.258458526304508, -32.409717904152537 ], [ -63.260984009160566, -32.409874272592866 ] ] ] } },
{ "type": "Feature", "properties": { "NOMBRE": "PALERMO" }, "geometry": { "type": "Polygon", "coordinates": [ [ [ -63.258578152095176, -32.415004916596921 ], [ -63.259400098650488, -32.41546032578308 ], [ -63.25958101897929, -32.41626037276162 ], [ -63.261197649602835, -32.417521513314391 ], [ -63.261297217194709, -32.417599086686572 ], [ -63.261391567289202, -32.417681218149717 ], [ -63.261480410284655, -32.417767655618846 ], [ -63.261563473479946, -32.417858133791889 ], [ -63.261640501911522, -32.41795237496391 ], [ -63.261711259136185, -32.418050089879287 ], [ -63.261775527956829, -32.418150978619487 ], [ -63.261833111089324, -32.418254731523533 ], [ -63.261883831768301, -32.41836103013825 ], [ -63.261927534289846, -32.418469548195787 ], [ -63.261964084489783, -32.418579952614827 ], [ -63.261993370155601, -32.418691904522944 ], [ -63.262015301371349, -32.41880506029662 ], [ -63.262029810793848, -32.418919072616006 ], [ -63.262036853859733, -32.419033591530834 ], [ -63.262036408922583, -32.419148265534581 ], [ -63.262089966896525, -32.421104162665003 ], [ -63.263194804568499, -32.422255646307391 ], [ -63.263159355231984, -32.422954072210409 ], [ -63.263408663724483, -32.423594393495307 ], [ -63.263796319285966, -32.424275066370356 ], [ -63.264714402673171, -32.424995515658694 ], [ -63.265043570702879, -32.425102154215672 ], [ -63.265186647693618, -32.425086473647916 ], [ -63.265328402358065, -32.425063740171503 ], [ -63.265468351799477, -32.425034031229849 ], [ -63.265606019271971, -32.424997448028712 ], [ -63.265740935804985, -32.424954115191262 ], [ -63.265872641801032, -32.424904180333677 ], [ -63.266000688601657, -32.424847813561946 ], [ -63.26612464001601, -32.424785206892381 ], [ -63.266244073806902, -32.424716573597458 ], [ -63.266358583129339, -32.424642147479062 ], [ -63.26646777791656, -32.424562182071952 ], [ -63.26657128620883, -32.42447694977988 ], [ -63.266668755420518, -32.424386740947568 ], [ -63.266759853541117, -32.424291862871499 ], [ -63.266844270266247, -32.424192638752913 ], [ -63.266921718054427, -32.424089406596742 ], [ -63.266991933106482, -32.423982518060008 ], [ -63.267054676263911, -32.423872337253805 ], [ -63.267109733823261, -32.423759239502935 ], [ -63.267156918263858, -32.42364361006711 ], [ -63.26719606888615, -32.423525842828582 ], [ -63.267227052358813, -32.423406338950379 ], [ -63.267249763172465, -32.423285505509583 ], [ -63.267264123998714, -32.423163754110703 ], [ -63.267359675006638, -32.422870511538456 ], [ -63.267413727094677, -32.42212757865137 ], [ -63.266786905988837, -32.420965876559379 ], [ -63.266745694649963, -32.420847052677153 ], [ -63.266712314215049, -32.420726473484685 ], [ -63.2666868673506, -32.420604509954558 ], [ -63.266669432313748, -32.420481537316917 ], [ -63.266660062711857, -32.420357933904995 ], [ -63.266658787337981, -32.420234079991125 ], [ -63.266665610082718, -32.420110356616782 ], [ -63.266680509922608, -32.419987144420254 ], [ -63.266703440985253, -32.41986482246574 ], [ -63.266734332690824, -32.419743767077009 ], [ -63.266773089969597, -32.419624350679776 ], [ -63.266769054011881, -32.419447663378548 ], [ -63.266772542698966, -32.419270967688718 ], [ -63.266783551436426, -32.419094494083453 ], [ -63.26680206582121, -32.418918472744949 ], [ -63.266828061660675, -32.41874313326413 ], [ -63.2668615050044, -32.418568704341304 ], [ -63.266902352188659, -32.418395413487715 ], [ -63.266950549893615, -32.418223486728991 ], [ -63.267006035213015, -32.418053148310257 ], [ -63.267068735736565, -32.417884620403719 ], [ -63.267138569644459, -32.417718122818918 ], [ -63.267215445814358, -32.417553872716034 ], [ -63.26735837501375, -32.416981123527385 ], [ -63.267774322287146, -32.416360088190281 ], [ -63.267814023608736, -32.416300458912559 ], [ -63.267802221985292, -32.416293641563236 ], [ -63.261226563041809, -32.412119444168589 ], [ -63.261122431715549, -32.412177565335966 ], [ -63.258578152095176, -32.415004916596921 ] ] ] } },
{ "type": "Feature", "properties": { "NOMBRE": "GENERAL GUEMES" }, "geometry": { "type": "Polygon", "coordinates": [ [ [ -63.254739556222013, -32.418380729748371 ], [ -63.2550584125649, -32.417159273140143 ], [ -63.255201147544774, -32.416491128496304 ], [ -63.256274280440913, -32.415269090970185 ], [ -63.257525195187412, -32.414421498657447 ], [ -63.258578152095168, -32.415004916596899 ], [ -63.261122431715535, -32.412177565335966 ], [ -63.261226563041809, -32.412119444168582 ], [ -63.261843361340709, -32.411442999944143 ], [ -63.261981363974961, -32.409936011408334 ], [ -63.258458526304494, -32.409717904152537 ], [ -63.258159054266912, -32.409660296704502 ], [ -63.257897618947929, -32.409570270371688 ], [ -63.256737701492249, -32.409073362318608 ], [ -63.250736196327018, -32.415826891297044 ], [ -63.254739556222013, -32.418380729748371 ] ] ] } },
{ "type": "Feature", "properties": { "NOMBRE": "MALVINAS ARGENTINAS" }, "geometry": { "type": "Polygon", "coordinates": [ [ [ -63.219909695408241, -32.406899876398462 ], [ -63.220981884185001, -32.405761340163572 ], [ -63.22010146785086, -32.405184511829631 ], [ -63.22093471094383, -32.404276675135712 ], [ -63.22008986203236, -32.403712519129378 ], [ -63.224371953480542, -32.39891563310357 ], [ -63.223006169855537, -32.398033150399321 ], [ -63.218158823298594, -32.394910295125086 ], [ -63.211825709368846, -32.401864034114965 ], [ -63.212834221557969, -32.402461059086512 ], [ -63.215679409562242, -32.404250813633368 ], [ -63.219909695408241, -32.406899876398462 ] ] ] } },
{ "type": "Feature", "properties": { "NOMBRE": "TRINITARIOS" }, "geometry": { "type": "Polygon", "coordinates": [ [ [ -63.245025978220461, -32.40153308899297 ], [ -63.247547387340155, -32.398617394818061 ], [ -63.243638975897866, -32.396156147762852 ], [ -63.245025978220461, -32.40153308899297 ] ] ] } },
{ "type": "Feature", "properties": { "NOMBRE": "LA CALERA" }, "geometry": { "type": "Polygon", "coordinates": [ [ [ -63.251134089923085, -32.405465371492291 ], [ -63.252076360031168, -32.406071928741227 ], [ -63.252438925433175, -32.405845781420744 ], [ -63.252806123513999, -32.405625079968011 ], [ -63.253177840612551, -32.405409892678108 ], [ -63.253553961671841, -32.405200286139333 ], [ -63.253934370274571, -32.404996325212551 ], [ -63.254318948679142, -32.404798073011229 ], [ -63.254707577855996, -32.404605590881864 ], [ -63.255100137524487, -32.404418938385128 ], [ -63.255496506189999, -32.404238173277399 ], [ -63.255896561181572, -32.404063351492944 ], [ -63.256300178689727, -32.403894527126667 ], [ -63.256707233804832, -32.403731752417336 ], [ -63.257117600555617, -32.40357507773156 ], [ -63.257531151948101, -32.403424551548135 ], [ -63.257947760004946, -32.403280220443065 ], [ -63.258367295804817, -32.403142129075292 ], [ -63.258789629522369, -32.403010320172832 ], [ -63.259214630468279, -32.402884834519512 ], [ -63.259642167129606, -32.402765710942504 ], [ -63.260072107210455, -32.402652986300282 ], [ -63.260504317672826, -32.40254669547123 ], [ -63.260938664777697, -32.402446871342832 ], [ -63.26137501412633, -32.402353544801642 ], [ -63.26181323070179, -32.402266744723619 ], [ -63.262253178910605, -32.402186497965268 ], [ -63.262694722624694, -32.40211282935536 ], [ -63.263137725223359, -32.402045761687262 ], [ -63.263582049635509, -32.401985315711833 ], [ -63.261355546079571, -32.398718815011897 ], [ -63.260993236672569, -32.398426526375047 ], [ -63.259388557222884, -32.396016181136886 ], [ -63.251134089923085, -32.405465371492291 ] ] ] } },
{ "type": "Feature", "properties": { "NOMBRE": "DR. RAMON CARRILLO" }, "geometry": { "type": "Polygon", "coordinates": [ [ [ -63.262715893606817, -32.391913502109851 ], [ -63.256632449250702, -32.387961417481527 ], [ -63.253441921766729, -32.391584484161854 ], [ -63.255734064113724, -32.393087165582287 ], [ -63.255745106391416, -32.393205268634098 ], [ -63.259535213752564, -32.395489295200861 ], [ -63.262715893606817, -32.391913502109851 ] ] ] } },
{ "type": "Feature", "properties": { "NOMBRE": "ALMIRANTE BROWN" }, "geometry": { "type": "Polygon", "coordinates": [ [ [ -63.247547387340155, -32.398617394818061 ], [ -63.245025978220461, -32.40153308899297 ], [ -63.251134089923085, -32.405465371492291 ], [ -63.254877568503886, -32.40118038369085 ], [ -63.248763318154161, -32.397270274841738 ], [ -63.247547387340155, -32.398617394818061 ] ] ] } },
{ "type": "Feature", "properties": { "NOMBRE": "MANUEL BELGARANO" }, "geometry": { "type": "Polygon", "coordinates": [ [ [ -63.248763318154161, -32.397270274841738 ], [ -63.254877568503886, -32.40118038369085 ], [ -63.259388557222884, -32.396016181136886 ], [ -63.259250710823231, -32.395809121571951 ], [ -63.259535213752564, -32.395489295200861 ], [ -63.255745106391416, -32.393205268634098 ], [ -63.255734064113724, -32.393087165582287 ], [ -63.253441921766729, -32.391584484161854 ], [ -63.251044979549064, -32.394400095692596 ], [ -63.250845928782425, -32.394308490825452 ], [ -63.249002471301992, -32.396484388975217 ], [ -63.249111119668513, -32.396560842077115 ], [ -63.248696911687645, -32.397098331731065 ], [ -63.248763318154161, -32.397270274841738 ] ] ] } },
{ "type": "Feature", "properties": { "NOMBRE": "PARQUE NORTE" }, "geometry": { "type": "Polygon", "coordinates": [ [ [ -63.248763318154161, -32.397270274841738 ], [ -63.248696911687645, -32.397098331731065 ], [ -63.249111119668513, -32.396560842077115 ], [ -63.249002471301992, -32.396484388975217 ], [ -63.250845928782425, -32.394308490825452 ], [ -63.251044979549064, -32.394400095692596 ], [ -63.253441921766729, -32.391584484161854 ], [ -63.249714954044485, -32.389073505214689 ], [ -63.252607099484557, -32.385789742876959 ], [ -63.25136718784254, -32.382919157384237 ], [ -63.2472513588231, -32.386322818099337 ], [ -63.245073397597636, -32.387441274987374 ], [ -63.241126488207186, -32.385312933359131 ], [ -63.240812173892557, -32.38536412836816 ], [ -63.241277643158966, -32.387244149522644 ], [ -63.241154344653715, -32.387384812938059 ], [ -63.242148417763268, -32.390520265856416 ], [ -63.243376132765412, -32.395137115758146 ], [ -63.243638975897866, -32.396156147762852 ], [ -63.247547387340155, -32.398617394818061 ], [ -63.248763318154161, -32.397270274841738 ] ] ] } },
{ "type": "Feature", "properties": { "NOMBRE": "CARLOS PELLEGRINI" }, "geometry": { "type": "Polygon", "coordinates": [ [ [ -63.236527704238476, -32.392662714141444 ], [ -63.234611893276771, -32.394750631327753 ], [ -63.244846996275854, -32.401348248584021 ], [ -63.245025978220447, -32.40153308899297 ], [ -63.243376132765398, -32.395137115758146 ], [ -63.242148417763268, -32.390520265856416 ], [ -63.241154344653729, -32.387384812938059 ], [ -63.236527704238476, -32.392662714141444 ] ] ] } },
{ "type": "Feature", "properties": { "NOMBRE": "FELIPE BOTTA" }, "geometry": { "type": "Polygon", "coordinates": [ [ [ -63.234611893276771, -32.394750631327753 ], [ -63.236527704238476, -32.392662714141444 ], [ -63.235066233239301, -32.387594853341859 ], [ -63.229939066816826, -32.388606551007129 ], [ -63.230890686089438, -32.392351468800506 ], [ -63.234611893276771, -32.394750631327753 ] ] ] } },
{ "type": "Feature", "properties": { "NOMBRE": "CENTRO OESTE" }, "geometry": { "type": "Polygon", "coordinates": [ [ [ -63.245060255969939, -32.412211006512216 ], [ -63.250736195895165, -32.41582689098805 ], [ -63.256737701492249, -32.409073362318608 ], [ -63.252076360031154, -32.406071928741213 ], [ -63.251750407818669, -32.406248692571779 ], [ -63.251429061579699, -32.406431425607821 ], [ -63.251112473195462, -32.40662004149835 ], [ -63.250800792301611, -32.406814451111849 ], [ -63.250494166217557, -32.407014562578318 ], [ -63.250192739876923, -32.407220281332734 ], [ -63.249896655758995, -32.407431510159533 ], [ -63.249606053821438, -32.407648149238661 ], [ -63.249321071434174, -32.407870096192575 ], [ -63.249041843314465, -32.408097246134588 ], [ -63.248768501463168, -32.408329491718462 ], [ -63.248501175102433, -32.408566723188962 ], [ -63.248239990614586, -32.408808828433791 ], [ -63.247985071482326, -32.409055693036422 ], [ -63.247736538230363, -32.409307200330161 ], [ -63.245060255969939, -32.412211006512216 ] ] ] } },
{ "type": "Feature", "properties": { "NOMBRE": "GENERAL PAZ" }, "geometry": { "type": "Polygon", "coordinates": [ [ [ -63.245766639121683, -32.421494183445702 ], [ -63.245989106245823, -32.42156223966348 ], [ -63.247265231844878, -32.422157743317754 ], [ -63.247452249620132, -32.422233814663556 ], [ -63.247642777954084, -32.422303340764316 ], [ -63.247836494635997, -32.422366205555853 ], [ -63.248033080083673, -32.422422306179861 ], [ -63.248232201753275, -32.422471546960402 ], [ -63.248433532322714, -32.42251384432172 ], [ -63.248636730233812, -32.422549130128942 ], [ -63.248841458489842, -32.422577343945783 ], [ -63.249047375586315, -32.422598438556228 ], [ -63.249254138755909, -32.422612379958345 ], [ -63.249461398119628, -32.422619144073387 ], [ -63.249668810973759, -32.422618720570412 ], [ -63.24987603074679, -32.422611108485015 ], [ -63.250082710257935, -32.422596321166317 ], [ -63.250288504960587, -32.422574385720168 ], [ -63.250493071619147, -32.422545333655137 ], [ -63.250696066411244, -32.422509218498675 ], [ -63.250897151364043, -32.422466096520651 ], [ -63.251095992452001, -32.422416042698337 ], [ -63.251292256323765, -32.422359140265478 ], [ -63.251485614203609, -32.422295483456317 ], [ -63.25167574448885, -32.42222517805078 ], [ -63.251862328213939, -32.422148343584858 ], [ -63.252045054223693, -32.42206510673563 ], [ -63.252223619833082, -32.421975605172342 ], [ -63.25239772240247, -32.421879991425989 ], [ -63.252567074888546, -32.421778424602209 ], [ -63.252731392218962, -32.421671070958602 ], [ -63.252890399111614, -32.42155811544739 ], [ -63.253043834561744, -32.421439741891923 ], [ -63.253191436964912, -32.421316150078653 ], [ -63.25333296355641, -32.421187545810824 ], [ -63.253468175500345, -32.421054145891745 ], [ -63.253596850841511, -32.42091616874206 ], [ -63.253718768974807, -32.420773849841609 ], [ -63.254478148881354, -32.419382089023422 ], [ -63.254739555042967, -32.418380729547827 ], [ -63.250736195463332, -32.415826890679099 ], [ -63.247297186257974, -32.419779102220765 ], [ -63.245766639121683, -32.421494183445702 ] ] ] } },
{ "type": "Feature", "properties": { "NOMBRE": "CENTRO SUR" }, "geometry": { "type": "Polygon", "coordinates": [ [ [ -63.245766639121683, -32.421494183445702 ], [ -63.247297186257974, -32.419779102220765 ], [ -63.250736195463332, -32.415826890679099 ], [ -63.245060254833426, -32.412211007103309 ], [ -63.245033393163908, -32.412240151825486 ], [ -63.243313654293168, -32.414051692807845 ], [ -63.241368576556042, -32.415745518958879 ], [ -63.238253837336053, -32.418259297858008 ], [ -63.240828321695552, -32.419916805417252 ], [ -63.242335553782716, -32.420881224943685 ], [ -63.24313539177836, -32.420858131900339 ], [ -63.243722968583953, -32.420868972033063 ], [ -63.245766639121683, -32.421494183445702 ] ] ] } },
{ "type": "Feature", "properties": { "NOMBRE": "DOMINGO F. SARMIENTO" }, "geometry": { "type": "Polygon", "coordinates": [ [ [ -63.23808703101647, -32.422750854030056 ], [ -63.238548890429954, -32.422292223787444 ], [ -63.238768728407045, -32.422026898121452 ], [ -63.239566808017031, -32.421532446754213 ], [ -63.239660941857927, -32.421477367003938 ], [ -63.239758978059506, -32.421427424791439 ], [ -63.239860528458578, -32.421382816785055 ], [ -63.239965187329432, -32.421343722625416 ], [ -63.240072542390045, -32.421310295548146 ], [ -63.240182164433982, -32.421282667907491 ], [ -63.240293621608814, -32.421260952250066 ], [ -63.240406469004043, -32.421245230327095 ], [ -63.240520261019334, -32.421235567931326 ], [ -63.241192892922385, -32.421180508569961 ], [ -63.241454808617796, -32.421099507051238 ], [ -63.242119679206873, -32.420887458124412 ], [ -63.242335553782716, -32.420881224943685 ], [ -63.240828321695552, -32.419916805417252 ], [ -63.238589446552616, -32.418475376847127 ], [ -63.238460485516612, -32.418569811514757 ], [ -63.238336950774247, -32.418669328704787 ], [ -63.238219120468983, -32.418773704365009 ], [ -63.238107259904034, -32.418882703504039 ], [ -63.238001620945091, -32.418996080720376 ], [ -63.237902441453166, -32.419113580754662 ], [ -63.237809944748918, -32.419234939064417 ], [ -63.237724339109782, -32.419359882419414 ], [ -63.237645817300809, -32.419488129516857 ], [ -63.237574556140544, -32.419619391614489 ], [ -63.237510716102612, -32.419753373180733 ], [ -63.237454440954274, -32.419889772559827 ], [ -63.237405857432407, -32.42002828265111 ], [ -63.237365074957935, -32.42016859160023 ], [ -63.237332185389121, -32.42031038350126 ], [ -63.237307262814412, -32.420453339107986 ], [ -63.237290363385412, -32.420597136552573 ], [ -63.237281525190006, -32.420741452070224 ], [ -63.237280768166315, -32.420885960728192 ], [ -63.237288094057412, -32.421030337157362 ], [ -63.237303486407157, -32.421174256284715 ], [ -63.237326910596799, -32.421317394065447 ], [ -63.237358313922577, -32.421459428212451 ], [ -63.237397625714131, -32.421600038922108 ], [ -63.23744475749325, -32.421738909594325 ], [ -63.237499603172772, -32.421875727545483 ], [ -63.237562039295142, -32.422010184712526 ], [ -63.237631925310126, -32.422141978346673 ], [ -63.237709103891071, -32.422270811695178 ], [ -63.237793401288762, -32.42239639466959 ], [ -63.237884627722572, -32.422518444498991 ], [ -63.237982577807486, -32.422636686366921 ], [ -63.23808703101647, -32.422750854030056 ] ] ] } },
{ "type": "Feature", "properties": { "NOMBRE": "SANTA ANA" }, "geometry": { "type": "Polygon", "coordinates": [ [ [ -63.227827302220945, -32.424409422392159 ], [ -63.228816806531654, -32.425779925780247 ], [ -63.230577001688978, -32.425954205883286 ], [ -63.231815931595889, -32.426032947847474 ], [ -63.233340268186979, -32.42592827671119 ], [ -63.235247113019781, -32.425591200113949 ], [ -63.236006597071516, -32.424871847975837 ], [ -63.237382874721888, -32.424015435793457 ], [ -63.237890391531003, -32.423231118692371 ], [ -63.238023291512775, -32.422814148074472 ], [ -63.23808703101647, -32.422750854030056 ], [ -63.237982577807472, -32.422636686366921 ], [ -63.237884627722572, -32.422518444498991 ], [ -63.237793401288762, -32.42239639466959 ], [ -63.237709103891063, -32.422270811695178 ], [ -63.237631925310126, -32.422141978346673 ], [ -63.237562039295142, -32.422010184712526 ], [ -63.237499603172765, -32.421875727545483 ], [ -63.23744475749325, -32.421738909594325 ], [ -63.237397625714131, -32.421600038922108 ], [ -63.237358313922577, -32.421459428212451 ], [ -63.237326910596799, -32.421317394065447 ], [ -63.237303486407157, -32.421174256284715 ], [ -63.237288094057412, -32.421030337157362 ], [ -63.237280768166301, -32.420885960728192 ], [ -63.237281525190006, -32.420741452070224 ], [ -63.237290363385412, -32.420597136552573 ], [ -63.237307262814412, -32.420453339107986 ], [ -63.237332185389107, -32.420310383501239 ], [ -63.237365074957935, -32.42016859160023 ], [ -63.237405857432407, -32.42002828265111 ], [ -63.237454440954274, -32.419889772559827 ], [ -63.237510716102612, -32.419753373180718 ], [ -63.237574556140544, -32.419619391614489 ], [ -63.237645817300809, -32.419488129516857 ], [ -63.237724339109782, -32.419359882419414 ], [ -63.237809944748918, -32.419234939064417 ], [ -63.237902441453166, -32.419113580754662 ], [ -63.238001620945091, -32.418996080720376 ], [ -63.238107259904034, -32.418882703504039 ], [ -63.238219120468983, -32.418773704365009 ], [ -63.238336950774247, -32.418669328704787 ], [ -63.238460485516612, -32.418569811514757 ], [ -63.238589446552616, -32.418475376847127 ], [ -63.238253837336053, -32.418259297858008 ], [ -63.236502059209201, -32.419491587101952 ], [ -63.232556551976543, -32.421749538714515 ], [ -63.228555640401908, -32.424019390094294 ], [ -63.227827302220945, -32.424409422392159 ] ] ] } },
{ "type": "Feature", "properties": { "NOMBRE": "BARRANCAS DEL RIO" }, "geometry": { "type": "Polygon", "coordinates": [ [ [ -63.228816806531654, -32.425779925780247 ], [ -63.227827302220945, -32.424409422392159 ], [ -63.225014280735081, -32.425915751568802 ], [ -63.218165809622086, -32.429289790620743 ], [ -63.208396326998404, -32.43461282524958 ], [ -63.203726090815792, -32.437296726364458 ], [ -63.204811741324633, -32.437246505790881 ], [ -63.216834029167337, -32.438373295742885 ], [ -63.22095508784043, -32.438739462555084 ], [ -63.221195677469488, -32.438725804016848 ], [ -63.219689090769279, -32.436047937597579 ], [ -63.219645219627878, -32.43596655285382 ], [ -63.219608684579896, -32.435882602054782 ], [ -63.219579689254395, -32.435796562038064 ], [ -63.219558397059629, -32.435708917966089 ], [ -63.219544933130635, -32.435620163322568 ], [ -63.219539368110041, -32.435530802142175 ], [ -63.219541733054498, -32.435441340178336 ], [ -63.219552020723945, -32.435352281048154 ], [ -63.219570168716238, -32.435264129564267 ], [ -63.219596073724539, -32.435177382903703 ], [ -63.220357844103731, -32.433986755656505 ], [ -63.222070737019763, -32.432046628306487 ], [ -63.222186626139852, -32.431886483369006 ], [ -63.222295556413094, -32.431722863892908 ], [ -63.222397379773824, -32.431555983707938 ], [ -63.22249196441404, -32.431386068722922 ], [ -63.222579180469332, -32.431213342090537 ], [ -63.222658914317641, -32.431038032988063 ], [ -63.222731061436299, -32.43086037497882 ], [ -63.222795523805942, -32.430680606016587 ], [ -63.222852215735998, -32.430498962381051 ], [ -63.222901064536501, -32.430315688033005 ], [ -63.22294200075747, -32.430131024174329 ], [ -63.222974975084803, -32.429945218574481 ], [ -63.222999938199017, -32.429758516249592 ], [ -63.223016863508946, -32.429571167677977 ], [ -63.223171219211707, -32.429458034450619 ], [ -63.223319975270208, -32.429339627781928 ], [ -63.223462877128824, -32.429216146282862 ], [ -63.223599688426361, -32.429087796237759 ], [ -63.223730178675282, -32.428954795478923 ], [ -63.223854125193704, -32.428817367328641 ], [ -63.22397132025192, -32.428675743888746 ], [ -63.224081567820754, -32.428530163294219 ], [ -63.224184682270739, -32.428380868614617 ], [ -63.22428049033384, -32.42822811390463 ], [ -63.224368829782165, -32.428072154849772 ], [ -63.224449553336463, -32.427913254813518 ], [ -63.224522522808911, -32.42775167824297 ], [ -63.224587618216809, -32.427587702210545 ], [ -63.224644728001678, -32.427421597718272 ], [ -63.224728814984942, -32.427247659281221 ], [ -63.224819072186001, -32.427075960862403 ], [ -63.224915413002016, -32.426906657262606 ], [ -63.225017756025281, -32.426739903823105 ], [ -63.22512599973328, -32.426575855920532 ], [ -63.225240049076234, -32.42641466121399 ], [ -63.225359799920376, -32.426256466828058 ], [ -63.22548514035141, -32.426101421551927 ], [ -63.226334221989966, -32.425849454051772 ], [ -63.227779869985461, -32.425586179646047 ], [ -63.22834671090753, -32.425733377032451 ], [ -63.228816806531654, -32.425779925780247 ] ] ] } },
{ "type": "Feature", "properties": { "NOMBRE": "VILLA DEL SUR" }, "geometry": { "type": "Polygon", "coordinates": [ [ [ -63.216333818981738, -32.438343115160613 ], [ -63.214090298779581, -32.438116758219607 ], [ -63.21414318299724, -32.442357012157608 ], [ -63.216329167912882, -32.44237750709901 ], [ -63.216333818981738, -32.438343115160613 ] ] ] } },
{ "type": "Feature", "properties": { "NOMBRE": "VILLA ALBERTINA" }, "geometry": { "type": "Polygon", "coordinates": [ [ [ -63.197801463247849, -32.440464891096859 ], [ -63.190151806139319, -32.430302690652397 ], [ -63.182207189203652, -32.434656747527455 ], [ -63.189515348655128, -32.444895010128192 ], [ -63.197801463247849, -32.440464891096859 ] ] ] } },
{ "type": "Feature", "properties": { "NOMBRE": "LAS PLAYAS" }, "geometry": { "type": "Polygon", "coordinates": [ [ [ -63.210932845939226, -32.433230900972738 ], [ -63.210950012467663, -32.431718504355032 ], [ -63.210970015574979, -32.429955127682177 ], [ -63.210960555944297, -32.425891788072505 ], [ -63.211032932980878, -32.420742701797934 ], [ -63.203958643297632, -32.42072422428965 ], [ -63.203916284095513, -32.425094969828514 ], [ -63.194302780313087, -32.428081334611832 ], [ -63.190235073005297, -32.430257051092518 ], [ -63.190151806139319, -32.430302690652397 ], [ -63.197801463247849, -32.440464891096859 ], [ -63.203726090815792, -32.437296726364458 ], [ -63.208396326998404, -32.43461282524958 ], [ -63.210932845939226, -32.433230900972738 ] ] ] } },
{ "type": "Feature", "properties": { "NOMBRE": "LOS OLMOS" }, "geometry": { "type": "Polygon", "coordinates": [ [ [ -63.211032932980878, -32.420742701797934 ], [ -63.211021039832737, -32.41945264542678 ], [ -63.216159075909815, -32.417842101524919 ], [ -63.213910866229703, -32.412480254907237 ], [ -63.213957909861961, -32.408583431617984 ], [ -63.211178348721447, -32.408601749410643 ], [ -63.210984101642332, -32.408629867279551 ], [ -63.207566502842091, -32.40814262458391 ], [ -63.204080947533463, -32.408102884792932 ], [ -63.203958643297632, -32.42072422428965 ], [ -63.211032932980878, -32.420742701797934 ] ] ] } },
{ "type": "Feature", "properties": { "NOMBRE": "BERNARDINO RIVADAVIA" }, "geometry": { "type": "Polygon", "coordinates": [ [ [ -63.229771935369769, -32.423329369614869 ], [ -63.232556551976543, -32.421749538714515 ], [ -63.236502059209201, -32.419491587101952 ], [ -63.238253837336053, -32.418259297858008 ], [ -63.238196953539287, -32.418222672990368 ], [ -63.233050332370645, -32.414967566271578 ], [ -63.232758860125863, -32.415162774450913 ], [ -63.231935738082285, -32.416094520755564 ], [ -63.231189787669628, -32.416576339126642 ], [ -63.224265587010763, -32.418911774189333 ], [ -63.222934006076244, -32.419281477459833 ], [ -63.225287806377978, -32.42077613469678 ], [ -63.226668356209657, -32.421620828936227 ], [ -63.22684427053661, -32.42148251276079 ], [ -63.229771935369769, -32.423329369614869 ] ] ] } },
{ "type": "Feature", "properties": { "NOMBRE": "NICOLAS AVELLANEDA" }, "geometry": { "type": "Polygon", "coordinates": [ [ [ -63.225785435461887, -32.394912373046722 ], [ -63.223035761022807, -32.398052270913674 ], [ -63.229303300199277, -32.402101692796386 ], [ -63.230308830008767, -32.402774713051549 ], [ -63.23311812055821, -32.399661037016827 ], [ -63.236303013175025, -32.396073364267636 ], [ -63.236452460886291, -32.395937205117292 ], [ -63.234611893581331, -32.39475063000711 ], [ -63.230890686089438, -32.392351468800506 ], [ -63.229067816003806, -32.391218941627244 ], [ -63.225785435461887, -32.394912373046722 ] ] ] } },
{ "type": "Feature", "properties": { "NOMBRE": "CENTRO NORTE" }, "geometry": { "type": "Polygon", "coordinates": [ [ [ -63.238941398278669, -32.408316987045438 ], [ -63.245060254833426, -32.412211007103309 ], [ -63.24773653823037, -32.409307200330161 ], [ -63.247985071482326, -32.409055693036422 ], [ -63.2482399906146, -32.408808828433791 ], [ -63.248501175102447, -32.408566723188962 ], [ -63.248768501463168, -32.408329491718462 ], [ -63.24904184331448, -32.408097246134588 ], [ -63.249321071434188, -32.407870096192575 ], [ -63.249606053821452, -32.407648149238668 ], [ -63.249896655758995, -32.407431510159533 ], [ -63.25019273987693, -32.407220281332734 ], [ -63.250494166217571, -32.407014562578333 ], [ -63.250800792301611, -32.406814451111856 ], [ -63.251112473195477, -32.406620041498364 ], [ -63.251429061579707, -32.406431425607835 ], [ -63.251750407818683, -32.406248692571793 ], [ -63.252076360031168, -32.406071928741227 ], [ -63.245025978220461, -32.40153308899297 ], [ -63.238941398278669, -32.408316987045438 ] ] ] } },
{ "type": "Feature", "properties": { "NOMBRE": "CENTRO ESTE" }, "geometry": { "type": "Polygon", "coordinates": [ [ [ -63.245060254833426, -32.412211007103309 ], [ -63.238941398278669, -32.408316987045438 ], [ -63.238913817885553, -32.408347737333614 ], [ -63.233050332370645, -32.414967566271578 ], [ -63.238196953539287, -32.418222672990368 ], [ -63.238253837336053, -32.418259297858008 ], [ -63.241368576556042, -32.415745518958879 ], [ -63.243313654293168, -32.414051692807845 ], [ -63.245033393163908, -32.412240151825486 ], [ -63.245060254833426, -32.412211007103309 ] ] ] } },
{ "type": "Feature", "properties": { "NOMBRE": "SAN NICOLAS" }, "geometry": { "type": "Polygon", "coordinates": [ [ [ -63.223035761022807, -32.398052270913674 ], [ -63.225785435461887, -32.394912373046722 ], [ -63.220905311174661, -32.391894230563516 ], [ -63.218158823298594, -32.394910295125086 ], [ -63.223006169855537, -32.398033150399321 ], [ -63.223035761022807, -32.398052270913674 ] ] ] } },
{ "type": "Feature", "properties": { "NOMBRE": "FLORENTINO AMEGHINO" }, "geometry": { "type": "Polygon", "coordinates": [ [ [ -63.230308830008767, -32.402774713051549 ], [ -63.231461492057008, -32.403546192341004 ], [ -63.238934272767928, -32.40831245213321 ], [ -63.238941398278669, -32.408316987045438 ], [ -63.245025978220461, -32.40153308899297 ], [ -63.244846996373099, -32.401348247512793 ], [ -63.236452460886291, -32.395937205117292 ], [ -63.236303013175025, -32.396073364267636 ], [ -63.23311812055821, -32.399661037016827 ], [ -63.230308830008767, -32.402774713051549 ] ] ] } },
{ "type": "Feature", "properties": { "NOMBRE": "EVITA" }, "geometry": { "type": "Polygon", "coordinates": [ [ [ -63.211001988646302, -32.422944193147323 ], [ -63.210960555944297, -32.425891788072505 ], [ -63.210970015574979, -32.429955127682177 ], [ -63.210950012467663, -32.431718504355032 ], [ -63.210932845939226, -32.433230900972738 ], [ -63.218165809622086, -32.429289790620743 ], [ -63.219797057430533, -32.428486179561475 ], [ -63.219075029071824, -32.427316480651371 ], [ -63.218483860096534, -32.426242465605164 ], [ -63.217983409013712, -32.425296067246784 ], [ -63.217054881066666, -32.423416770877637 ], [ -63.216171977759402, -32.423806735752009 ], [ -63.215395384451604, -32.421600051378846 ], [ -63.211001988646302, -32.422944193147323 ] ] ] } },
{ "type": "Feature", "properties": { "NOMBRE": "INDUSTRIAL" }, "geometry": { "type": "Polygon", "coordinates": [ [ [ -63.211001988646302, -32.422944193147323 ], [ -63.215395384451604, -32.421600051378846 ], [ -63.216171977759402, -32.423806735752009 ], [ -63.217054881066666, -32.423416770877637 ], [ -63.217983409013712, -32.425296067246784 ], [ -63.218483860096534, -32.426242465605164 ], [ -63.219075029071824, -32.427316480651371 ], [ -63.219797057430533, -32.428486179561475 ], [ -63.225014280735081, -32.425915751568802 ], [ -63.228555640401908, -32.424019390094294 ], [ -63.229771935369769, -32.423329369614869 ], [ -63.22684427053661, -32.42148251276079 ], [ -63.226668356209657, -32.421620828936227 ], [ -63.225287806377978, -32.42077613469678 ], [ -63.222934006076244, -32.419281477459833 ], [ -63.220789625863738, -32.419885053763224 ], [ -63.219438241032158, -32.416742014760658 ], [ -63.219233775714571, -32.416911038637572 ], [ -63.216159075909815, -32.417842101524919 ], [ -63.211021039832737, -32.41945264542678 ], [ -63.211032932980878, -32.420742701797934 ], [ -63.211001988646302, -32.422944193147323 ] ] ] } },
{ "type": "Feature", "properties": { "NOMBRE": "SAN JUAN BAUTISTA" }, "geometry": { "type": "Polygon", "coordinates": [ [ [ -63.213957909861961, -32.408583431617984 ], [ -63.213910866229703, -32.412480254907237 ], [ -63.216159075909815, -32.417842101524919 ], [ -63.219233775714571, -32.416911038637572 ], [ -63.219438241032158, -32.416742014760658 ], [ -63.220418238372964, -32.415633163240848 ], [ -63.223696795393494, -32.411915732996619 ], [ -63.225032004907632, -32.410484470313648 ], [ -63.225287488168796, -32.410304259220283 ], [ -63.225085255151761, -32.41024806582827 ], [ -63.22241393887856, -32.408562721043609 ], [ -63.222384295145602, -32.408529336054443 ], [ -63.213957909861961, -32.408583431617984 ] ] ] } },
{ "type": "Feature", "properties": { "NOMBRE": "GENERAL LAMADRID" }, "geometry": { "type": "Polygon", "coordinates": [ [ [ -63.225366348738632, -32.410333654339993 ], [ -63.23033307172873, -32.413469964386366 ], [ -63.232772714546279, -32.414968158674043 ], [ -63.233050332370645, -32.414967566271578 ], [ -63.238913817885553, -32.408347737333614 ], [ -63.238941398278669, -32.408316987045438 ], [ -63.238934272767928, -32.40831245213321 ], [ -63.231462552586315, -32.403546868474344 ], [ -63.230402596664206, -32.404700381015481 ], [ -63.228087633565501, -32.407286363847433 ], [ -63.226695255689975, -32.408858638423602 ], [ -63.225366348738632, -32.410333654339993 ] ] ] } },
{ "type": "Feature", "properties": { "NOMBRE": "GENERAL SAN MARTIN" }, "geometry": { "type": "Polygon", "coordinates": [ [ [ -63.219909695408241, -32.406899876398462 ], [ -63.219927572368704, -32.406911069863206 ], [ -63.222293101917806, -32.408426635076076 ], [ -63.22241393887856, -32.408562721043609 ], [ -63.225085255151761, -32.41024806582827 ], [ -63.22534518912218, -32.410320291834978 ], [ -63.225366348738632, -32.410333654339993 ], [ -63.226695255689975, -32.408858638423602 ], [ -63.228087633565501, -32.407286363847433 ], [ -63.230402596664206, -32.404700381015481 ], [ -63.231462552586315, -32.403546868474344 ], [ -63.231461492057008, -32.403546192341004 ], [ -63.229303300199277, -32.402101692796386 ], [ -63.224371953480542, -32.39891563310357 ], [ -63.22008986203236, -32.403712519129378 ], [ -63.22093471094383, -32.404276675135712 ], [ -63.22010146785086, -32.405184511829631 ], [ -63.220981884185001, -32.405761340163572 ], [ -63.219909695408241, -32.406899876398462 ] ] ] } },
{ "type": "Feature", "properties": { "NOMBRE": "BELLO HORIZONTE" }, "geometry": { "type": "Polygon", "coordinates": [ [ [ -63.213957909861961, -32.408583431617984 ], [ -63.222384295145602, -32.408529336054443 ], [ -63.222293101917806, -32.408426635076076 ], [ -63.219927572368704, -32.406911069863206 ], [ -63.215679409562242, -32.404250813633368 ], [ -63.212834221557969, -32.402461059086512 ], [ -63.211825709368846, -32.401864034114965 ], [ -63.211067761940036, -32.401393033948665 ], [ -63.211063352852022, -32.405324545031469 ], [ -63.210984101642332, -32.408629867279551 ], [ -63.211178348721447, -32.408601749410643 ], [ -63.213957909861961, -32.408583431617984 ] ] ] } },
{ "type": "Feature", "properties": { "NOMBRE": "SAN JUSTO" }, "geometry": { "type": "Polygon", "coordinates": [ [ [ -63.219438241032158, -32.416742014760658 ], [ -63.220789625863738, -32.419885053763224 ], [ -63.222934006076244, -32.419281477459833 ], [ -63.224265587010763, -32.418911774189333 ], [ -63.231189787669628, -32.416576339126642 ], [ -63.231935738082285, -32.416094520755564 ], [ -63.232758860125863, -32.415162774450913 ], [ -63.233050332370645, -32.414967566271578 ], [ -63.232772714546279, -32.414968158674043 ], [ -63.23033307172873, -32.413469964386366 ], [ -63.22534518912218, -32.410320291834978 ], [ -63.225287488168796, -32.410304259220283 ], [ -63.225032004907632, -32.410484470313648 ], [ -63.223696795393494, -32.411915732996619 ], [ -63.220418238372964, -32.415633163240848 ], [ -63.219438241032158, -32.416742014760658 ] ] ] } }
]
}
